{"type":"FeatureCollection","features":[{"type":"Feature","id":"Taiwan","properties":{"name":"Taiwan"},"geometry":{"type":"MultiPolygon","coordinates":[[[[121.0098,22.6208],[120.9486,22.5027],[120.8982,22.3794],[120.8766,22.2614],[120.8802,22.1416],[120.8658,22.0322],[120.8406,21.9246],[120.7434,21.9559],[120.6894,22.0322],[120.6786,22.159],[120.6066,22.3117],[120.5814,22.3569],[120.4806,22.4419],[120.387,22.4853],[120.315,22.5478],[120.3258,22.5426],[120.2718,22.6277],[120.2322,22.718],[120.1494,22.9749],[120.1206,23.0374],[120.0846,23.0929],[120.0738,23.1502],[120.0846,23.2127],[120.1206,23.3047],[120.1422,23.3985],[120.1242,23.5269],[120.1314,23.6537],[120.1602,23.7092],[120.6282,24.4783],[120.7578,24.6415],[120.837,24.7231],[120.9018,24.8133],[120.963,24.9279],[121.0422,25.0321],[121.0962,25.065],[121.3662,25.1588],[121.449,25.2491],[121.5174,25.2768],[121.593,25.2751],[121.6434,25.2317],[121.6866,25.1814],[121.7334,25.1536],[121.8522,25.105],[121.9062,25.0564],[121.9278,24.973],[121.8558,24.8949],[121.8198,24.8237],[121.8126,24.7456],[121.827,24.6397],[121.827,24.5338],[121.737,24.2856],[121.6398,24.1293],[121.6146,24.053],[121.5822,23.8603],[121.5246,23.6676],[121.4778,23.4245],[121.3986,23.1728],[121.3518,23.0669],[121.2942,22.9662],[121.161,22.777],[121.0098,22.6208]]],[[[118.407,24.5217],[118.4502,24.4557],[118.4322,24.414],[118.2954,24.4366],[118.2882,24.4765],[118.3386,24.4696],[118.407,24.5217]]]]}}]}